COMMENT,ORIGINATOR,NORAD_CAT_ID,OBJECT_NAME,OBJECT_TYPE,CLASSIFICATION_TYPE,INTLDES,EPOCH,EPOCH_MICROSECONDS,MEAN_MOTION,ECCENTRICITY,INCLINATION,RA_OF_ASC_NODE,ARG_OF_PERICENTER,MEAN_ANOMALY,EPHEMERIS_TYPE,ELEMENT_SET_NO,REV_AT_EPOCH,BSTAR,MEAN_MOTION_DOT,MEAN_MOTION_DDOT,FILE,TLE_LINE0,TLE_LINE1,TLE_LINE2,OBJECT_ID,OBJECT_NUMBER,SEMIMAJOR_AXIS,PERIOD,APOGEE,PERIGEE
"GENERATED VIA SPACETRACK.ORG API","JSPOC","27665","DELTA 2 R/B(1)","ROCKET BODY","U","03005C","2016-01-10 20:29:31","951392","14.28385113","0.000762","39.5753","254.8702","114.926","297.6759","0","999","67608","5.7584e-05","6e-07","0","1978671","0 DELTA 2 R/B(1)","1 27665U 03005C   16010.85384203  .00000060  00000-0  57584-4 0  9994","2 27665  39.5753 254.8702 0007620 114.9260 297.6759 14.28385113676084","2003-005C","27665","7175.270","100.813","802.603","791.668"
"GENERATED VIA SPACETRACK.ORG API","JSPOC","24732","INTELSAT 26 (JCSAT 4)","PAYLOAD","U","97007A","2016-01-10 20:29:32","360064","1.00271499","0.0003523","6.6217","54.066","218.3338","206.9641","0","999","6907","0","2.4e-07","0","1978626","0 INTELSAT 26 (JCSAT 4)","1 24732U 97007A   16010.85384676  .00000024  00000-0  00000+0 0  9991","2 24732   6.6217  54.0660 0003523 218.3338 206.9641  1.00271499 69077","1997-007A","24732","42164.812","1436.101","35801.531","35771.822"
"GENERATED VIA SPACETRACK.ORG API","JSPOC","35931","OCEANSAT 2","PAYLOAD","U","09051A","2016-01-10 20:29:38","963616","14.50853676","0.0002412","98.267","106.0722","31.2324","328.9014","0","999","33347","7.1568e-05","2.38e-06","0","1979034","0 OCEANSAT 2","1 35931U 09051A   16010.85392319 +.00000238 +00000-0 +71568-4 0  9998","2 35931 098.2670 106.0722 0002412 031.2324 328.9014 14.50853676333479","2009-051A","35931","7100.998","99.251","724.576","721.150"
"GENERATED VIA SPACETRACK.ORG API","JSPOC","14059","SL-8 R/B","ROCKET BODY","U","83042B","2016-01-10 20:29:42","171648","13.78538297","0.0041276","82.9725","90.3631","297.311","200.3039","0","999","64338","5.9723e-05","7.6e-07","0","1979034","0 SL-8 R/B","1 14059U 83042B   16010.85396032 +.00000076 +00000-0 +59723-4 0  9993","2 14059 082.9725 090.3631 0041276 297.3110 200.3039 13.78538297643383","1983-042B","14059","7347.212","104.458","999.404","938.751"
"GENERATED VIA SPACETRACK.ORG API","JSPOC","23111","SL-12 R/B(2)","ROCKET BODY","U","94030D","2016-01-10 20:29:43","724256","1.03838577","0.0044592","13.5659","19.216","86.3276","102.8388","0","999","8208","0","-4.8e-07","0","1978638","0 SL-12 R/B(2)","1 23111U 94030D   16010.85397829 -.00000048  00000-0  00000+0 0  9995","2 23111  13.5659  19.2160 0044592  86.3276 102.8388  1.03838577 82084","1994-030D","23111","41193.562","1386.767","34999.118","34631.737"
"GENERATED VIA SPACETRACK.ORG API","JSPOC","9634","COSMOS 886","PAYLOAD","U","76126A","2016-01-10 20:29:43","912608","12.56102601","0.1085751","65.8353","320.6983","11.5391","350.8479","0","999","80157","3.7371e-05","-4e-08","0","1979034","0 COSMOS 886","1  9634U 76126A   16010.85398047 -.00000004 +00000-0 +37371-4 0  9996","2  9634 065.8353 320.6983 1085751 011.5391 350.8479 12.56102601801573","1976-126A","9634","7817.209","114.640","2287.829","590.320"
"GENERATED VIA SPACETRACK.ORG API","JSPOC","16758","COSMOS 1748","PAYLOAD","U","86042A","2016-01-10 20:29:43","372608","12.50733758","0.0009674","74.0188","328.103","61.8673","326.463","0","999","35141","3.5429e-06","-1.5e-07","0","1979034","0 COSMOS 1748","1 16758U 86042A   16010.85397422 -.00000015 +00000-0 +35429-5 0  9990","2 16758 074.0188 328.1030 0009674 061.8673 326.4630 12.50733758351410","1986-042A","16758","7839.564","115.132","1469.013","1453.845"
"GENERATED VIA SPACETRACK.ORG API","JSPOC","20217","HIMAWARI 4 (GMS 4)","PAYLOAD","U","89070A","2016-01-10 20:29:43","724256","0.97412787","0.0043069","15.472","19.2726","50.0531","139.7948","0","999","9542","0","-1.78e-06","0","1979034","0 HIMAWARI 4 (GMS 4)","1 20217U 89070A   16010.85397829 -.00000178 +00000-0 +00000-0 0  9992","2 20217 015.4720 019.2726 0043069 050.0531 139.7948 00.97412787095422","1989-070A","20217","42985.752","1478.245","36792.752","36422.481"
"GENERATED VIA SPACETRACK.ORG API","JSPOC","10931","COSMOS 1014","PAYLOAD","U","78056B","2016-01-10 20:29:44","206368","12.40444576","0.0032681","74.0286","310.5467","138.1134","251.7048","0","999","70232","3.2884e-05","-1.1e-07","0","1979034","0 COSMOS 1014","1 10931U 78056B   16010.85398387 -.00000011 +00000-0 +32884-4 0  9991","2 10931 074.0286 310.5467 0032681 138.1134 251.7048 12.40444576702328","1978-056B","10931","7882.856","116.087","1530.483","1478.959"
"GENERATED VIA SPACETRACK.ORG API","JSPOC","20436","SPOT 2","PAYLOAD","U","90005A","2016-01-10 20:29:45","753792","14.65873338","0.0147306","98.6998","243.95","82.9383","278.8547","0","999","35636","5.4969e-05","2.9e-06","0","1978720","0 SPOT 2","1 20436U 90005A   16010.85400178  .00000290  00000-0  54969-4 0  9998","2 20436  98.6998 243.9500 0147306  82.9383 278.8547 14.65873338356365","1990-005A","20436","7052.409","98.234","778.161","570.388"
"GENERATED VIA SPACETRACK.ORG API","JSPOC","3947","INTELSAT 3-F4","PAYLOAD","U","69045A","2016-01-10 20:29:51","455328","0.90043965","0.0025783","12.9298","319.2984","343.5132","177.0897","0","999","12487","0","-9.4e-07","0","1978627","0 INTELSAT 3-F4","1 03947U 69045A   16010.85406777 -.00000094  00000-0  00000+0 0  9992","2 03947  12.9298 319.2984 0025783 343.5132 177.0897  0.90043965124875","1969-045A","3947","45300.059","1599.218","39038.721","38805.126"
"GENERATED VIA SPACETRACK.ORG API","JSPOC","33111","SL-12 R/B(2)","ROCKET BODY","U","08033D","2016-01-10 20:30:01","309248","1.00295886","0.0032716","3.712","58.5034","243.5073","178.5173","0","999","2760","0","1.5e-07","0","1979034","0 SL-12 R/B(2)","1 33111U 08033D   16010.85418182 +.00000015 +00000-0 +00000-0 0  9994","2 33111 003.7120 058.5034 0032716 243.5073 178.5173 01.00295886027608","2008-033D","33111","42157.976","1435.751","35917.765","35641.917"
"GENERATED VIA SPACETRACK.ORG API","JSPOC","39433","HUMSAT D","PAYLOAD","U","13066T","2016-01-10 20:30:06","855264","14.90335405","0.0032657","97.7181","81.664","152.2825","208.0143","0","999","11485","0.00015852","1.5e-05","0","1979034","0 HUMSAT D","1 39433U 13066T   16010.85424601 +.00001500 +00000-0 +15852-3 0  9996","2 39433 097.7181 081.6640 0032657 152.2825 208.0143 14.90335405114851","2013-066T","39433","6975.025","96.622","619.669","574.112"
"GENERATED VIA SPACETRACK.ORG API","JSPOC","39358","SJ-16","PAYLOAD","U","13057A","2016-01-10 20:30:08","862336","14.86719165","0.0017137","74.9759","309.2013","69.3315","290.9705","0","999","12008","6.7478e-05","5.74e-06","0","1978720","0 SJ-16","1 39358U 13057A   16010.85426924  .00000574  00000-0  67478-4 0  9994","2 39358  74.9759 309.2013 0017137  69.3315 290.9705 14.86719165120086","2013-057A","39358","6986.331","96.857","620.169","596.224"
"GENERATED VIA SPACETRACK.ORG API","JSPOC","33409","SJ-6F","PAYLOAD","U","08053B","2016-01-10 20:30:12","910176","14.94383557","0.0016738","97.5813","5.7604","154.2944","205.9131","0","999","39283","5.6285e-06","5e-08","0","1978708","0 SJ-6F","1 33409U 08053B   16010.85431609  .00000005  00000-0  56285-5 0  9995","2 33409  97.5813   5.7604 0016738 154.2944 205.9131 14.94383557392835","2008-053B","33409","6962.423","96.360","595.942","572.635"
"GENERATED VIA SPACETRACK.ORG API","JSPOC","40878","YAOGAN 27","PAYLOAD","U","15040A","2016-01-10 20:30:21","860352","13.15944865","0.0008015","100.4742","72.9203","325.7264","34.3323","0","999","1798","0","-4.5e-07","0","1979034","0 YAOGAN 27","1 40878U 15040A   16010.85441968 -.00000045 +00000-0 +00000-0 0  9990","2 40878 100.4742 072.9203 0008015 325.7264 034.3323 13.15944865017982","2015-040A","40878","7578.385","109.427","1206.324","1194.176"
"GENERATED VIA SPACETRACK.ORG API","JSPOC","35943","COMSATBW-1","PAYLOAD","U","09054B","2016-01-10 20:30:30","211776","1.00274012","0.0002595","0.0778","68.8135","230.5361","181.0753","0","999","2305","0","2.7e-07","0","1978639","0 COMSATBW-1","1 35943U 09054B   16010.85451634  .00000027  00000-0  00000+0 0  9994","2 35943   0.0778  68.8135 0002595 230.5361 181.0753  1.00274012 23052","2009-054B","35943","42164.107","1436.065","35796.914","35775.031"
"GENERATED VIA SPACETRACK.ORG API","JSPOC","39476","INMARSAT 5-F1","PAYLOAD","U","13073A","2016-01-10 20:30:30","325824","1.00269899","9.28e-05","0.0263","54.1896","121.6038","304.2419","0","999","772","0","3.1e-07","0","1978833","0 INMARSAT 5-F1","1 39476U 13073A   16010.85451766  .00000031  00000-0  00000+0 0  9996","2 39476   0.0263  54.1896 0000928 121.6038 304.2419  1.00269899  7728","2013-073A","39476","42165.260","1436.123","35791.038","35783.212"
"GENERATED VIA SPACETRACK.ORG API","JSPOC","39476","INMARSAT 5-F1","PAYLOAD","U","13073A","2016-01-10 20:30:30","325824","1.00269899","9.28e-05","0.0263","54.1896","121.6038","304.2419","0","999","772","0","3.1e-07","0","1979020","0 INMARSAT 5-F1","1 39476U 13073A   16010.85451766  .00000031  00000-0  00000+0 0  9996","2 39476   0.0263  54.1896 0000928 121.6038 304.2419  1.00269899  7728","2013-073A","39476","42165.260","1436.123","35791.038","35783.212"
"GENERATED VIA SPACETRACK.ORG API","JSPOC","26900","INTELSAT 902","PAYLOAD","U","01039A","2016-01-10 20:30:30","250656","1.00273155","0.0003019","0.0249","69.1879","222.9419","187.2947","0","999","5251","0","3.5e-07","0","1979034","0 INTELSAT 902","1 26900U 01039A   16010.85451679 +.00000035 +00000-0 +00000-0 0  9991","2 26900 000.0249 069.1879 0003019 222.9419 187.2947 01.00273155052511","2001-039A","26900","42164.347","1436.077","35798.942","35773.483"
